NORAD_CAT_ID,OBJECT_NAME,OBJECT_TYPE,EPOCH,MEAN_MOTION,ECCENTRICITY,INCLINATION,RA_OF_ASC_NODE,ARG_OF_PERICENTER,MEAN_ANOMALY,BSTAR,MEAN_MOTION_DOT,MEAN_MOTION_DDOT,TLE_LINE0,TLE_LINE1,TLE_LINE2,SEMIMAJOR_AXIS,PERIOD,APOGEE,PERIGEE,DECAYED
53177.0,STARLINK-4298,PAYLOAD,2023-11-26 03:57:54,15.08866863,0.0002003,53.2181,285.4346,103.64,256.4815,0.00054016,8.325e-05,0.0,0 STARLINK-4298,1 53177U 22083AX  23330.16521275  .00008325  00000-0  54016-3 0  9995,2 53177  53.2181 285.4346 0002003 103.6400 256.4815 15.08866863 75718,6917.798,95.436,541.049,538.278,0.0
53177.0,STARLINK-4298,PAYLOAD,2023-11-26 21:27:09,15.08826858,0.000201,53.2181,282.1628,107.897,252.2242,-0.00029921,-5.045e-05,0.0,0 STARLINK-4298,1 53177U 22083AX  23330.89386301 -.00005045  00000-0 -29921-3 0  9999,2 53177  53.2181 282.1628 0002010 107.8970 252.2242 15.08826858 75821,6917.921,95.438,541.176,538.395,0.0
53177.0,STARLINK-4298,PAYLOAD,2023-11-27 03:48:43,15.08807832,0.0001692,53.2173,280.9733,99.1779,260.9405,-0.00049007,-8.072e-05,0.0,0 STARLINK-4298,1 53177U 22083AX  23331.15883219 -.00008072  00000-0 -49007-3 0  9999,2 53177  53.2173 280.9733 0001692  99.1779 260.9405 15.08807832 76504,6917.979,95.44,541.014,538.673,0.0
53177.0,STARLINK-4298,PAYLOAD,2023-11-28 02:04:07,15.08850206,0.0001943,53.2179,276.809,97.0534,263.0679,0.0013257,0.00020879,0.0,0 STARLINK-4298,1 53177U 22083AX  23332.08619638  .00020879  00000-0  13257-2 0  9998,2 53177  53.2179 276.8090 0001943  97.0534 263.0679 15.08850206 76640,6917.849,95.437,541.058,538.37,0.0
53177.0,STARLINK-4298,PAYLOAD,2023-11-28 06:50:16,15.08856182,0.0001811,53.2176,275.9183,88.6854,271.4345,0.0013917,0.0002194,0.0,0 STARLINK-4298,1 53177U 22083AX  23332.28491512  .00021940  00000-0  13917-2 0  9992,2 53177  53.2176 275.9183 0001811  88.6854 271.4345 15.08856182 76030,6917.831,95.437,540.949,538.443,0.0
53177.0,STARLINK-4298,PAYLOAD,2023-11-29 03:30:17,15.0885553,0.0002156,53.2174,272.0536,66.9278,293.1942,0.00034556,5.218e-05,0.0,0 STARLINK-4298,1 53177U 22083AX  23333.14603183  .00005218  00000-0  34556-3 0  9990,2 53177  53.2174 272.0536 0002156  66.9278 293.1942 15.08855530 76805,6917.833,95.437,541.189,538.206,0.0
53177.0,STARLINK-4298,PAYLOAD,2023-11-29 05:05:39,15.08865627,0.0001927,53.2175,271.7542,104.8482,255.2723,0.00062494,9.679e-05,0.0,0 STARLINK-4298,1 53177U 22083AX  23333.21226597  .00009679  00000-0  62494-3 0  9995,2 53177  53.2175 271.7542 0001927 104.8482 255.2723 15.08865627 76818,6917.802,95.436,541.0,538.334,0.0
53177.0,STARLINK-4298,PAYLOAD,2023-11-30 03:21:03,15.08847271,0.0001758,53.2171,267.5936,92.1142,268.0051,0.00097054,0.00015195,0.0,0 STARLINK-4298,1 53177U 22083AX  23334.13962938  .00015195  00000-0  97054-3 0  9993,2 53177  53.2171 267.5936 0001758  92.1142 268.0051 15.08847271 76954,6917.858,95.437,540.939,538.507,0.0
53177.0,STARLINK-4298,PAYLOAD,2023-12-01 03:11:51,15.08833122,0.0001426,53.2157,263.1395,107.5015,252.6133,0.0010144,0.0001589,0.0,0 STARLINK-4298,1 53177U 22083AX  23335.13323685  .00015890  00000-0  10144-2 0  9990,2 53177  53.2157 263.1395 0001426 107.5015 252.6133 15.08833122 77109,6917.901,95.438,540.753,538.78,0.0
53177.0,STARLINK-4298,PAYLOAD,2023-12-01 22:16:28,15.08858251,0.000136,53.2148,259.5683,114.0731,246.0403,0.00090476,0.00014148,0.0,0 STARLINK-4298,1 53177U 22083AX  23335.92811089  .00014148  00000-0  90476-3 0  9999,2 53177  53.2148 259.5683 0001360 114.0731 246.0403 15.08858251 76581,6917.825,95.436,540.63,538.749,0.0
53177.0,STARLINK-4298,PAYLOAD,2023-12-02 04:38:00,15.08924835,0.0001482,53.2174,258.3724,96.9487,263.1674,0.0037664,0.00060308,0.0,0 STARLINK-4298,1 53177U 22083AX  23336.19306081  .00060308  00000-0  37664-2 0  9998,2 53177  53.2174 258.3724 0001482  96.9487 263.1674 15.08924835 77262,6917.621,95.432,540.511,538.461,0.0
53177.0,STARLINK-4298,PAYLOAD,2023-12-02 22:07:15,15.08831391,0.000138,53.2178,255.1033,108.8882,251.226,0.00036494,5.524e-05,0.0,0 STARLINK-4298,1 53177U 22083AX  23336.92170847  .00005524  00000-0  36494-3 0  9998,2 53177  53.2178 255.1033 0001380 108.8882 251.2260 15.08831391 76737,6917.907,95.438,540.726,538.817,0.0
53177.0,STARLINK-4298,PAYLOAD,2023-12-03 01:18:01,15.08832538,0.0001393,53.216,254.5123,105.2276,254.8871,-0.0002352,-4.028e-05,0.0,0 STARLINK-4298,1 53177U 22083AX  23337.05418903 -.00004028  00000-0 -23520-3 0  9997,2 53177  53.2160 254.5123 0001393 105.2276 254.8871 15.08832538 77397,6917.903,95.438,540.732,538.805,0.0
53177.0,STARLINK-4298,PAYLOAD,2023-12-03 04:28:48,15.08829811,0.000143,53.2157,253.9161,109.7275,250.3871,-1.7039e-05,-5.59e-06,0.0,0 STARLINK-4298,1 53177U 22083AX  23337.18667074 -.00000559  00000-0 -17039-4 0  9990,2 53177  53.2157 253.9161 0001430 109.7275 250.3871 15.08829811 76770,6917.912,95.438,540.766,538.787,0.0
53177.0,STARLINK-4298,PAYLOAD,2023-12-04 01:08:49,15.08833854,0.0001552,53.2164,250.0496,112.5072,247.6085,0.00015545,2.186e-05,0.0,0 STARLINK-4298,1 53177U 22083AX  23338.04779773  .00002186  00000-0  15545-3 0  9991,2 53177  53.2164 250.0496 0001552 112.5072 247.6085 15.08833854 76902,6917.899,95.438,540.838,538.691,0.0
53177.0,STARLINK-4298,PAYLOAD,2023-12-04 17:02:41,15.08839037,0.0001594,53.2163,247.0759,110.5819,249.5344,0.00032175,4.836e-05,0.0,0 STARLINK-4298,1 53177U 22083AX  23338.71019996  .00004836  00000-0  32175-3 0  9991,2 53177  53.2163 247.0759 0001594 110.5819 249.5344 15.08839037 77642,6917.883,95.438,540.851,538.646,0.0
53177.0,STARLINK-4298,PAYLOAD,2023-12-05 00:59:36,15.08846323,0.0001587,53.2166,245.5883,108.7471,251.3694,0.00039858,6.062e-05,0.0,0 STARLINK-4298,1 53177U 22083AX  23339.04139656  .00006062  00000-0  39858-3 0  9992,2 53177  53.2166 245.5883 0001587 108.7471 251.3694 15.08846323 77051,6917.861,95.437,540.824,538.628,0.0
53177.0,STARLINK-4298,PAYLOAD,2023-12-05 16:53:28,15.08841964,0.0001628,53.2168,242.6214,117.9935,242.1222,0.00034297,5.175e-05,0.0,0 STARLINK-4298,1 53177U 22083AX  23339.70379791  .00005175  00000-0  34297-3 0  9997,2 53177  53.2168 242.6214 0001628 117.9935 242.1222 15.08841964 77154,6917.874,95.437,540.866,538.613,0.0
53177.0,STARLINK-4298,PAYLOAD,2023-12-06 04:01:09,15.08843989,0.0001597,53.2167,240.5395,116.0592,244.0565,5.9195e-05,6.54e-06,0.0,0 STARLINK-4298,1 53177U 22083AX  23340.16747405  .00000654  00000-0  59195-4 0  9992,2 53177  53.2167 240.5395 0001597 116.0592 244.0565 15.08843989 77862,6917.868,95.437,540.838,538.628,0.0
53177.0,STARLINK-4298,PAYLOAD,2023-12-07 00:41:11,15.08836123,0.0001526,53.2161,236.6699,81.3892,278.7273,-1.2287e-05,-4.84e-06,0.0,0 STARLINK-4298,1 53177U 22083AX  23341.02860143 -.00000484  00000-0 -12287-4 0  9997,2 53177  53.2161 236.6699 0001526  81.3892 278.7273 15.08836123 77994,6917.892,95.438,540.813,538.702,0.0
53177.0,STARLINK-4298,PAYLOAD,2023-12-08 02:07:21,15.08840321,0.0001464,53.2157,231.9104,86.1097,274.0062,7.2628e-05,8.68e-06,0.0,0 STARLINK-4298,1 53177U 22083AX  23342.08844042  .00000868  00000-0  72628-4 0  9993,2 53177  53.2157 231.9104 0001464  86.1097 274.0062 15.08840321 78158,6917.879,95.438,540.757,538.732,0.0
53177.0,STARLINK-4298,PAYLOAD,2023-12-09 16:16:36,15.08843525,0.0001467,53.2164,224.7775,88.8535,271.2626,5.9761e-05,6.63e-06,0.0,0 STARLINK-4298,1 53177U 22083AX  23343.67819883  .00000663  00000-0  59761-4 0  9990,2 53177  53.2164 224.7775 0001467  88.8535 271.2626 15.08843525 78399,6917.87,95.437,540.749,538.72,0.0
53177.0,STARLINK-4298,PAYLOAD,2023-12-10 19:18:09,15.08842166,0.0001367,53.2161,219.7181,90.993,269.1219,3.7199e-05,3.04e-06,0.0,0 STARLINK-4298,1 53177U 22083AX  23344.80427892  .00000304  00000-0  37199-4 0  9994,2 53177  53.2161 219.7181 0001367  90.9930 269.1219 15.08842166 78566,6917.874,95.437,540.684,538.793,0.0
53177.0,STARLINK-4298,PAYLOAD,2023-12-10 22:28:55,15.08842554,0.0001547,53.2172,219.1248,106.4143,253.7019,5.4991e-05,5.87e-06,0.0,0 STARLINK-4298,1 53177U 22083AX  23344.93675854  .00000587  00000-0  54991-4 0  9993,2 53177  53.2172 219.1248 0001547 106.4143 253.7019 15.08842554 77944,6917.873,95.437,540.808,538.667,0.0
53177.0,STARLINK-4298,PAYLOAD,2023-12-11 22:19:43,15.08837097,0.0001523,53.217,214.6646,98.3233,261.7932,4.0379e-05,3.55e-06,0.0,0 STARLINK-4298,1 53177U 22083AX  23345.93036321  .00000355  00000-0  40379-4 0  9992,2 53177  53.2170 214.6646 0001523  98.3233 261.7932 15.08837097 78093,6917.889,95.438,540.808,538.701,0.0
53177.0,STARLINK-4298,PAYLOAD,2023-12-12 22:10:30,15.0884297,0.0001477,53.2166,210.2036,95.9554,264.1607,6.5875e-05,7.61e-06,0.0,0 STARLINK-4298,1 53177U 22083AX  23346.92395989  .00000761  00000-0  65875-4 0  9999,2 53177  53.2166 210.2036 0001477  95.9554 264.1607 15.08842970 78249,6917.871,95.437,540.758,538.715,0.0
53177.0,STARLINK-4298,PAYLOAD,2023-12-13 20:25:54,15.08840115,0.0001435,53.2165,206.0417,95.5608,264.5548,6.4883e-05,7.45e-06,0.0,0 STARLINK-4298,1 53177U 22083AX  23347.85132127  .00000745  00000-0  64883-4 0  9995,2 53177  53.2165 206.0417 0001435  95.5608 264.5548 15.08840115 79028,6917.88,95.438,540.738,538.752,0.0
53177.0,STARLINK-4298,PAYLOAD,2023-12-14 20:16:41,15.08837743,0.0001438,53.2162,201.5828,100.8478,259.2676,6.2222e-06,-1.89e-06,0.0,0 STARLINK-4298,1 53177U 22083AX  23348.84492594 -.00000189  00000-0  62222-5 0  9991,2 53177  53.2162 201.5828 0001438 100.8478 259.2676 15.08837743 79171,6917.887,95.438,540.747,538.757,0.0
53177.0,STARLINK-4298,PAYLOAD,2023-12-14 21:52:04,15.0883846,0.000138,53.2157,201.2805,84.2169,275.8981,5.3439e-06,-2.03e-06,0.0,0 STARLINK-4298,1 53177U 22083AX  23348.91116544 -.00000203  00000-0  53439-5 0  9994,2 53177  53.2157 201.2805 0001380  84.2169 275.8981 15.08838460 78545,6917.885,95.438,540.705,538.795,0.0
53177.0,STARLINK-4298,PAYLOAD,2023-12-15 21:42:52,15.08835689,0.0001415,53.2158,196.8228,79.2082,280.9069,5.1191e-05,5.27e-06,0.0,0 STARLINK-4298,1 53177U 22083AX  23349.90476903  .00000527  00000-0  51191-4 0  9992,2 53177  53.2158 196.8228 0001415  79.2082 280.9069 15.08835689 78691,6917.894,95.438,540.737,538.78,0.0
